start=new Date('2022-04-19T00:00:00.000Z').valueOf();
sats=[{"MEAN_MOTION":"15.06415215","MEAN_MOTION_DDOT":"0.0000000000000","COUNTRY_CODE":"US","ELEMENT_SET_NO":"999","REV_AT_EPOCH":"6937","ARG_OF_PERICENTER":"68.0966","MEAN_MOTION_DOT":"0.00009860","OBJECT_TYPE":"PAYLOAD","TLE_LINE1":"1 47394U 21005AX  22108.78176942  .00009860  00000-0  67964-3 0  9990","CENTER_NAME":"EARTH","EPOCH":"2022-04-18T18:45:44.877888","DECAY_DATE":null,"SEMIMAJOR_AXIS":"6925.302","CLASSIFICATION_TYPE":"U","TIME_SYSTEM":"UTC","GP_ID":"201578844","OBJECT_NAME":"STARLINK-2115","LAUNCH_DATE":"2021-01-20","EPHEMERIS_TYPE":"0","RA_OF_ASC_NODE":"285.3064","NORAD_CAT_ID":"47394","SITE":"AFETR","ECCENTRICITY":"0.00015900","OBJECT_ID":"2021-005AX","PERIOD":"95.591","MEAN_ELEMENT_THEORY":"SGP4","TLE_LINE2":"2 47394  53.0527 285.3064 0001590  68.0966 292.0192 15.06415215 69379","RCS_SIZE":"LARGE","REF_FRAME":"TEME","PERIAPSIS":"546.066","MEAN_ANOMALY":"292.0192","FILE":"3407402","INCLINATION":"53.0527","BSTAR":"0.00067964000000","APOAPSIS":"548.268"},{"DECAY_DATE":null,"EPOCH":"2022-04-18T16:27:08.856288","CENTER_NAME":"EARTH","OBJECT_TYPE":"PAYLOAD","TLE_LINE1":"1 47395U 21005AY  22108.68551917  .00010483  00000-0  72153-3 0  9998","MEAN_MOTION_DOT":"0.00010483","REV_AT_EPOCH":"6942","ARG_OF_PERICENTER":"49.1120","COUNTRY_CODE":"US","ELEMENT_SET_NO":"999","MEAN_MOTION":"15.06405068","MEAN_MOTION_DDOT":"0.0000000000000","ECCENTRICITY":"0.00018490","NORAD_CAT_ID":"47395","SITE":"AFETR","RA_OF_ASC_NODE":"280.7620","LAUNCH_DATE":"2021-01-20","EPHEMERIS_TYPE":"0","GP_ID":"201579094","OBJECT_NAME":"STARLINK-2117","SEMIMAJOR_AXIS":"6925.333","TIME_SYSTEM":"UTC","CLASSIFICATION_TYPE":"U","REF_FRAME":"TEME","PERIAPSIS":"545.918","RCS_SIZE":"LARGE","TLE_LINE2":"2 47395  53.0534 280.7620 0001849  49.1120 311.0029 15.06405068 69426","MEAN_ELEMENT_THEORY":"SGP4","OBJECT_ID":"2021-005AY","PERIOD":"95.592","BSTAR":"0.00072153000000","APOAPSIS":"548.479","INCLINATION":"53.0534","FILE":"3407402","MEAN_ANOMALY":"311.0029"},{"FILE":"3407402","MEAN_ANOMALY":"281.6626","BSTAR":"0.00047873000000","APOAPSIS":"548.281","INCLINATION":"53.0535","MEAN_ELEMENT_THEORY":"SGP4","OBJECT_ID":"2021-005AZ","PERIOD":"95.592","REF_FRAME":"TEME","PERIAPSIS":"546.129","RCS_SIZE":"LARGE","TLE_LINE2":"2 47396  53.0535 290.2646 0001554  78.4537 281.6626 15.06402798 69301","LAUNCH_DATE":"2021-01-20","EPHEMERIS_TYPE":"0","GP_ID":"201580346","OBJECT_NAME":"STARLINK-2118","SEMIMAJOR_AXIS":"6925.340","TIME_SYSTEM":"UTC","CLASSIFICATION_TYPE":"U","ECCENTRICITY":"0.00015540","NORAD_CAT_ID":"47396","SITE":"AFETR","RA_OF_ASC_NODE":"290.2646","REV_AT_EPOCH":"6930","ARG_OF_PERICENTER":"78.4537","COUNTRY_CODE":"US","ELEMENT_SET_NO":"999","MEAN_MOTION":"15.06402798","MEAN_MOTION_DDOT":"0.0000000000000","DECAY_DATE":null,"CENTER_NAME":"EARTH","EPOCH":"2022-04-18T19:05:04.136928","OBJECT_TYPE":"PAYLOAD","TLE_LINE1":"1 47396U 21005AZ  22108.79518677  .00006857  00000-0  47873-3 0  9998","MEAN_MOTION_DOT":"0.00006857"},{"SITE":"AFETR","NORAD_CAT_ID":"47397","RA_OF_ASC_NODE":"319.9727","ECCENTRICITY":"0.00019280","OBJECT_NAME":"STARLINK-2119","GP_ID":"201580597","TIME_SYSTEM":"UTC","CLASSIFICATION_TYPE":"U","SEMIMAJOR_AXIS":"6925.342","EPHEMERIS_TYPE":"0","LAUNCH_DATE":"2021-01-20","TLE_LINE1":"1 47397U 21005BA  22108.85875369  .00003706  00000-0  26755-3 0  9996","OBJECT_TYPE":"PAYLOAD","MEAN_MOTION_DOT":"0.00003706","DECAY_DATE":null,"CENTER_NAME":"EARTH","EPOCH":"2022-04-18T20:36:36.318816","MEAN_MOTION_DDOT":"0.0000000000000","MEAN_MOTION":"15.06402302","ARG_OF_PERICENTER":"52.9031","REV_AT_EPOCH":"6889","ELEMENT_SET_NO":"999","COUNTRY_CODE":"US","APOAPSIS":"548.542","BSTAR":"0.00026755000000","INCLINATION":"53.0550","MEAN_ANOMALY":"307.2134","FILE":"3407402","RCS_SIZE":"LARGE","TLE_LINE2":"2 47397  53.0550 319.9727 0001928  52.9031 307.2134 15.06402302 68892","PERIAPSIS":"545.871","REF_FRAME":"TEME","PERIOD":"95.592","OBJECT_ID":"2021-005BA","MEAN_ELEMENT_THEORY":"SGP4"},{"MEAN_MOTION_DOT":"0.00012462","OBJECT_TYPE":"PAYLOAD","TLE_LINE1":"1 47398U 21005BB  22108.76570051  .00012462  00000-0  85403-3 0  9991","EPOCH":"2022-04-18T18:22:36.524064","CENTER_NAME":"EARTH","DECAY_DATE":null,"MEAN_MOTION":"15.06398514","MEAN_MOTION_DDOT":"0.0000000000000","COUNTRY_CODE":"US","ELEMENT_SET_NO":"999","REV_AT_EPOCH":"6929","ARG_OF_PERICENTER":"72.1060","RA_OF_ASC_NODE":"290.3933","NORAD_CAT_ID":"47398","SITE":"AFETR","ECCENTRICITY":"0.00015420","SEMIMAJOR_AXIS":"6925.353","CLASSIFICATION_TYPE":"U","TIME_SYSTEM":"UTC","GP_ID":"201579345","OBJECT_NAME":"STARLINK-2120","LAUNCH_DATE":"2021-01-20","EPHEMERIS_TYPE":"0","TLE_LINE2":"2 47398  53.0549 290.3933 0001542  72.1060 288.0097 15.06398514 69298","RCS_SIZE":"LARGE","REF_FRAME":"TEME","PERIAPSIS":"546.150","OBJECT_ID":"2021-005BB","PERIOD":"95.592","MEAN_ELEMENT_THEORY":"SGP4","INCLINATION":"53.0549","BSTAR":"0.00085403000000","APOAPSIS":"548.286","MEAN_ANOMALY":"288.0097","FILE":"3407402"},{"DECAY_DATE":null,"CENTER_NAME":"EARTH","EPOCH":"2022-04-18T20:16:41.039616","TLE_LINE1":"1 47399U 21005BC  22108.84491944  .00003761  00000-0  27137-3 0  9996","OBJECT_TYPE":"PAYLOAD","MEAN_MOTION_DOT":"0.00003761","ARG_OF_PERICENTER":"68.5463","REV_AT_EPOCH":"6916","ELEMENT_SET_NO":"999","COUNTRY_CODE":"US","MEAN_MOTION_DDOT":"0.0000000000000","MEAN_MOTION":"15.06379882","ECCENTRICITY":"0.00014830","SITE":"AFETR","NORAD_CAT_ID":"47399","RA_OF_ASC_NODE":"300.0486","EPHEMERIS_TYPE":"0","LAUNCH_DATE":"2021-01-20","OBJECT_NAME":"STARLINK-2121","GP_ID":"201579595","TIME_SYSTEM":"UTC","CLASSIFICATION_TYPE":"U","SEMIMAJOR_AXIS":"6925.410","PERIAPSIS":"546.248","REF_FRAME":"TEME","RCS_SIZE":"LARGE","TLE_LINE2":"2 47399  53.0545 300.0486 0001483  68.5463 291.5684 15.06379882 69161","MEAN_ELEMENT_THEORY":"SGP4","PERIOD":"95.593","OBJECT_ID":"2021-005BC","APOAPSIS":"548.302","BSTAR":"0.00027137000000","INCLINATION":"53.0545","FILE":"3407402","MEAN_ANOMALY":"291.5684"},{"NORAD_CAT_ID":"47400","SITE":"AFETR","RA_OF_ASC_NODE":"280.4009","ECCENTRICITY":"0.00015930","GP_ID":"201579846","OBJECT_NAME":"STARLINK-2122","SEMIMAJOR_AXIS":"6925.327","TIME_SYSTEM":"UTC","CLASSIFICATION_TYPE":"U","LAUNCH_DATE":"2021-01-20","EPHEMERIS_TYPE":"0","OBJECT_TYPE":"PAYLOAD","TLE_LINE1":"1 47400U 21005BD  22108.76196522  .00010596  00000-0  72901-3 0  9997","MEAN_MOTION_DOT":"0.00010596","DECAY_DATE":null,"EPOCH":"2022-04-18T18:17:13.795008","CENTER_NAME":"EARTH","MEAN_MOTION":"15.06407181","MEAN_MOTION_DDOT":"0.0000000000000","REV_AT_EPOCH":"6943","ARG_OF_PERICENTER":"57.6469","COUNTRY_CODE":"US","ELEMENT_SET_NO":"999","BSTAR":"0.00072901000000","APOAPSIS":"548.295","INCLINATION":"53.0548","MEAN_ANOMALY":"302.4674","FILE":"3407402","RCS_SIZE":"LARGE","TLE_LINE2":"2 47400  53.0548 280.4009 0001593  57.6469 302.4674 15.06407181 69431","REF_FRAME":"TEME","PERIAPSIS":"546.088","OBJECT_ID":"2021-005BD","PERIOD":"95.592","MEAN_ELEMENT_THEORY":"SGP4"},{"MEAN_MOTION_DDOT":"0.0000000000000","MEAN_MOTION":"15.06408101","ARG_OF_PERICENTER":"57.0476","REV_AT_EPOCH":"6930","ELEMENT_SET_NO":"999","COUNTRY_CODE":"US","TLE_LINE1":"1 47401U 21005BE  22108.78041006  .00002584  00000-0  19227-3 0  9996","OBJECT_TYPE":"PAYLOAD","MEAN_MOTION_DOT":"0.00002584","DECAY_DATE":null,"CENTER_NAME":"EARTH","EPOCH":"2022-04-18T18:43:47.429184","OBJECT_NAME":"STARLINK-2123","GP_ID":"201580097","CLASSIFICATION_TYPE":"U","TIME_SYSTEM":"UTC","SEMIMAJOR_AXIS":"6925.324","EPHEMERIS_TYPE":"0","LAUNCH_DATE":"2021-01-20","SITE":"AFETR","NORAD_CAT_ID":"47401","RA_OF_ASC_NODE":"290.3407","ECCENTRICITY":"0.00016550","PERIOD":"95.592","OBJECT_ID":"2021-005BE","MEAN_ELEMENT_THEORY":"SGP4","RCS_SIZE":"LARGE","TLE_LINE2":"2 47401  53.0548 290.3407 0001655  57.0476 303.0672 15.06408101 69309","PERIAPSIS":"546.043","REF_FRAME":"TEME","MEAN_ANOMALY":"303.0672","FILE":"3407402","APOAPSIS":"548.335","BSTAR":"0.00019227000000","INCLINATION":"53.0548"},{"GP_ID":"201578845","OBJECT_NAME":"STARLINK-2124","SEMIMAJOR_AXIS":"6925.386","CLASSIFICATION_TYPE":"U","TIME_SYSTEM":"UTC","LAUNCH_DATE":"2021-01-20","EPHEMERIS_TYPE":"0","NORAD_CAT_ID":"47402","SITE":"AFETR","RA_OF_ASC_NODE":"290.2434","ECCENTRICITY":"0.00015680","MEAN_MOTION":"15.06387748","MEAN_MOTION_DDOT":"0.0000000000000","REV_AT_EPOCH":"6930","ARG_OF_PERICENTER":"51.5821","COUNTRY_CODE":"US","ELEMENT_SET_NO":"999","OBJECT_TYPE":"PAYLOAD","TLE_LINE1":"1 47402U 21005BF  22108.79886456  .00002869  00000-0  21152-3 0  9990","MEAN_MOTION_DOT":"0.00002869","DECAY_DATE":null,"CENTER_NAME":"EARTH","EPOCH":"2022-04-18T19:10:21.897984","MEAN_ANOMALY":"308.5308","FILE":"3407402","BSTAR":"0.00021152000000","APOAPSIS":"548.337","INCLINATION":"53.0546","OBJECT_ID":"2021-005BF","PERIOD":"95.593","MEAN_ELEMENT_THEORY":"SGP4","RCS_SIZE":"LARGE","TLE_LINE2":"2 47402  53.0546 290.2434 0001568  51.5821 308.5308 15.06387748 69302","REF_FRAME":"TEME","PERIAPSIS":"546.165"},{"DECAY_DATE":null,"EPOCH":"2022-04-18T19:20:58.153632","CENTER_NAME":"EARTH","TLE_LINE1":"1 47403U 21005BG  22108.80622863  .00011896  00000-0  81597-3 0  9992","OBJECT_TYPE":"PAYLOAD","MEAN_MOTION_DOT":"0.00011896","ARG_OF_PERICENTER":"67.1617","REV_AT_EPOCH":"6930","ELEMENT_SET_NO":"999","COUNTRY_CODE":"US","MEAN_MOTION_DDOT":"0.0000000000000","MEAN_MOTION":"15.06410035","ECCENTRICITY":"0.00014320","SITE":"AFETR","NORAD_CAT_ID":"47403","RA_OF_ASC_NODE":"290.2191","EPHEMERIS_TYPE":"0","LAUNCH_DATE":"2021-01-20","OBJECT_NAME":"STARLINK-2127","GP_ID":"201579095","CLASSIFICATION_TYPE":"U","TIME_SYSTEM":"UTC","SEMIMAJOR_AXIS":"6925.318","PERIAPSIS":"546.191","REF_FRAME":"TEME","RCS_SIZE":"LARGE","TLE_LINE2":"2 47403  53.0538 290.2191 0001432  67.1617 292.9524 15.06410035 69302","MEAN_ELEMENT_THEORY":"SGP4","PERIOD":"95.592","OBJECT_ID":"2021-005BG","APOAPSIS":"548.175","BSTAR":"0.00081597000000","INCLINATION":"53.0538","FILE":"3407402","MEAN_ANOMALY":"292.9524"}];
